IRIDIUM 171             
1 43929U 19002H   23224.12201725  .00000179  00000+0  56844-4 0  9999
2 43929  86.3935  68.4457 0002133  83.7769 276.3670 14.34216668239888
IRIDIUM 170             
1 43930U 19002J   23225.07486134  .00000929  00000+0  14342-3 0  9994
2 43930  86.6056  67.9129 0002426  89.4441 270.7054 14.72264734246377
IRIDIUM 167             
1 43931U 19002K   23224.11567776  .00000038  00000+0  64057-5 0  9992
2 43931  86.3925  68.2704 0002206  84.8112 275.3335 14.34216689239888
IRIDIUM 181             
1 56726U 23068S   23224.74732413  .00000379  00000+0  10616-3 0  9994
2 56726  86.8615 106.7659 0003911  78.1118 282.0522 14.43627979 12495
IRIDIUM 177             
1 56727U 23068T   23224.20405222  .00001408  00000+0  18197-3 0  9997
2 56727  86.1961 102.5455 0002351  78.7440 281.4045 14.80197985 12529
IRIDIUM 174             
1 56728U 23068U   23224.73944796  .00001105  00000+0  14200-3 0  9995
2 56728  86.1966 102.3697 0002214  85.9020 274.2454 14.80201979 12605
IRIDIUM 178             
1 56729U 23068V   23224.93651305  .00001393  00000+0  17967-3 0  9991
2 56729  86.5767 105.0903 0002619  81.9496 278.2022 14.80290731 12633
IRIDIUM 179             
1 56730U 23068W   23225.06630789  .00001384  00000+0  17849-3 0  9990
2 56730  86.6777 105.2779 0002672  78.4828 281.6694 14.80294725 12651
